{
    "links": {
        "self": "http://www.neowsapp.com/rest/v1/neo/3460261?api_key=iIulBulltgU6a56xZRHN4H3l9WmuAYTsLGpBGhQ2"
    },
    "id": "3460261",
    "neo_reference_id": "3460261",
    "name": "(2009 KL)",
    "designation": "2009 KL",
    "nasa_jpl_url": "http://ssd.jpl.nasa.gov/sbdb.cgi?sstr=3460261",
    "absolute_magnitude_h": 23.8,
    "estimated_diameter": {
        "kilometers": {
            "estimated_diameter_min": 0.046190746,
            "estimated_diameter_max": 0.1032856481
        },
        "meters": {
            "estimated_diameter_min": 46.1907460282,
            "estimated_diameter_max": 103.2856480504
        },
        "miles": {
            "estimated_diameter_min": 0.0287015901,
            "estimated_diameter_max": 0.0641787064
        },
        "feet": {
            "estimated_diameter_min": 151.544447199,
            "estimated_diameter_max": 338.8636855496
        }
    },
    "is_potentially_hazardous_asteroid": false,
    "close_approach_data": [
        {
            "close_approach_date": "2009-05-14",
            "close_approach_date_full": "2009-May-14 02:07",
            "epoch_date_close_approach": 1242266820000,
            "relative_velocity": {
                "kilometers_per_second": "15.2388333817",
                "kilometers_per_hour": "54859.8001742568",
                "miles_per_hour": "34087.7463916097"
            },
            "miss_distance": {
                "astronomical": "0.0405934958",
                "lunar": "15.7908698662",
                "kilometers": "6072700.507533946",
                "miles": "3773401.1204466148"
            },
            "orbiting_body": "Earth"
        }
    ],
    "orbital_data": {
        "orbit_id": "12",
        "orbit_determination_date": "2017-04-06 09:00:33",
        "first_observation_date": "2009-05-17",
        "last_observation_date": "2009-05-31",
        "data_arc_in_days": 14,
        "observations_used": 46,
        "orbit_uncertainty": "8",
        "minimum_orbit_intersection": ".0170938",
        "jupiter_tisserand_invariant": "3.608",
        "epoch_osculation": "2454971.5",
        "eccentricity": ".5901802150040298",
        "semi_major_axis": "1.989091281001507",
        "inclination": "6.635195494661267",
        "ascending_node_longitude": "221.9487623813736",
        "orbital_period": "1024.661685985217",
        "perihelion_distance": ".8151689611173966",
        "perihelion_argument": "307.5129505924789",
        "aphelion_distance": "3.163013600885618",
        "perihelion_time": "2454922.852799482070",
        "mean_anomaly": "17.09148729379491",
        "mean_motion": ".351335474843932",
        "equinox": "J2000",
        "orbit_class": {
            "orbit_class_type": "APO",
            "orbit_class_description": "Near-Earth asteroid orbits which cross the Earth’s orbit similar to that of 1862 Apollo",
            "orbit_class_range": "a (semi-major axis) > 1.0 AU; q (perihelion) < 1.017 AU"
        }
    },
    "is_sentry_object": false
}